start=new Date('2022-09-01T00:00:00.000Z').valueOf();
sats=[{"SITE":"AFETR","CLASSIFICATION_TYPE":"U","MEAN_ANOMALY":"274.0204","REV_AT_EPOCH":"130","ECCENTRICITY":"0.00025990","ELEMENT_SET_NO":"999","DECAY_DATE":null,"PERIAPSIS":"348.043","OBJECT_NAME":"STARLINK-4278","TIME_SYSTEM":"UTC","MEAN_MOTION_DOT":"-0.00012839","COUNTRY_CODE":"US","APOAPSIS":"351.540","SEMIMAJOR_AXIS":"6727.927","OBJECT_ID":"2022-083BC","ARG_OF_PERICENTER":"16.6722","OBJECT_TYPE":"PAYLOAD","PERIOD":"91.534","GP_ID":"211427019","MEAN_ELEMENT_THEORY":"SGP4","FILE":"3552761","RA_OF_ASC_NODE":"182.4968","BSTAR":"-0.00008721400000","TLE_LINE2":"2 53182  53.2155 182.4968 0002599  16.6722 274.0204 15.73188934  1301","LAUNCH_DATE":"2022-07-17","INCLINATION":"53.2155","MEAN_MOTION":"15.73188934","NORAD_CAT_ID":"53182","CENTER_NAME":"EARTH","REF_FRAME":"TEME","MEAN_MOTION_DDOT":"0.0000000000000","EPHEMERIS_TYPE":"0","RCS_SIZE":"LARGE","EPOCH":"2022-08-31T22:00:00.999936","TLE_LINE1":"1 53182U 22083BC  22243.91667824 -.00012839  00000-0 -87214-4 0  9991"},{"REF_FRAME":"TEME","MEAN_MOTION_DDOT":"0.0000000000000","TLE_LINE1":"1 53183U 22083BD  22243.91667824  .00016204  00000-0  11959-3 0  9992","EPHEMERIS_TYPE":"0","RCS_SIZE":"LARGE","EPOCH":"2022-08-31T22:00:00.999936","MEAN_MOTION":"15.73210001","CENTER_NAME":"EARTH","NORAD_CAT_ID":"53183","TLE_LINE2":"2 53183  53.2154 182.4941 0003438  11.7585 280.7636 15.73210001  1302","LAUNCH_DATE":"2022-07-17","INCLINATION":"53.2154","BSTAR":"0.00011959000000","RA_OF_ASC_NODE":"182.4941","FILE":"3552761","GP_ID":"211427875","MEAN_ELEMENT_THEORY":"SGP4","OBJECT_TYPE":"PAYLOAD","PERIOD":"91.533","ARG_OF_PERICENTER":"11.7585","OBJECT_ID":"2022-083BD","SEMIMAJOR_AXIS":"6727.867","APOAPSIS":"352.045","COUNTRY_CODE":"US","MEAN_MOTION_DOT":"0.00016204","PERIAPSIS":"347.419","OBJECT_NAME":"STARLINK-4268","DECAY_DATE":null,"TIME_SYSTEM":"UTC","MEAN_ANOMALY":"280.7636","ECCENTRICITY":"0.00034380","ELEMENT_SET_NO":"999","REV_AT_EPOCH":"130","SITE":"AFETR","CLASSIFICATION_TYPE":"U"},{"MEAN_MOTION_DOT":"0.00020522","COUNTRY_CODE":"US","DECAY_DATE":null,"OBJECT_NAME":"STARLINK-4257","PERIAPSIS":"347.887","TIME_SYSTEM":"UTC","MEAN_ANOMALY":"279.9485","ECCENTRICITY":"0.00027420","REV_AT_EPOCH":"130","ELEMENT_SET_NO":"999","CLASSIFICATION_TYPE":"U","SITE":"AFETR","PERIOD":"91.533","OBJECT_TYPE":"PAYLOAD","ARG_OF_PERICENTER":"13.7665","OBJECT_ID":"2022-083BE","SEMIMAJOR_AXIS":"6727.866","APOAPSIS":"351.576","RA_OF_ASC_NODE":"182.4943","FILE":"3552761","GP_ID":"211427294","MEAN_ELEMENT_THEORY":"SGP4","REF_FRAME":"TEME","MEAN_MOTION_DDOT":"0.0000000000000","RCS_SIZE":"LARGE","EPHEMERIS_TYPE":"0","EPOCH":"2022-08-31T22:00:00.999936","TLE_LINE1":"1 53184U 22083BE  22243.91667824  .00020522  00000-0  15021-3 0  9995","MEAN_MOTION":"15.73210108","NORAD_CAT_ID":"53184","CENTER_NAME":"EARTH","TLE_LINE2":"2 53184  53.2160 182.4943 0002742  13.7665 279.9485 15.73210108  1300","LAUNCH_DATE":"2022-07-17","INCLINATION":"53.2160","BSTAR":"0.00015021000000"},{"MEAN_ELEMENT_THEORY":"SGP4","GP_ID":"211427162","FILE":"3552761","RA_OF_ASC_NODE":"304.0450","BSTAR":"-0.06769800000000","LAUNCH_DATE":"2022-07-22","INCLINATION":"97.6550","TLE_LINE2":"2 53189  97.6550 304.0450 0001849  98.1833   1.0815 15.17608270  1306","NORAD_CAT_ID":"53189","CENTER_NAME":"EARTH","MEAN_MOTION":"15.17608270","TLE_LINE1":"1 53189U 22084A   22243.91667824 -.01245358  00000-0 -67698-1 0  9995","EPOCH":"2022-08-31T22:00:00.999936","RCS_SIZE":"LARGE","EPHEMERIS_TYPE":"0","MEAN_MOTION_DDOT":"0.0000000000000","REF_FRAME":"TEME","SITE":"AFWTR","CLASSIFICATION_TYPE":"U","ELEMENT_SET_NO":"999","ECCENTRICITY":"0.00018490","REV_AT_EPOCH":"130","MEAN_ANOMALY":"1.0815","TIME_SYSTEM":"UTC","PERIAPSIS":"511.799","OBJECT_NAME":"STARLINK-4391","DECAY_DATE":null,"COUNTRY_CODE":"US","MEAN_MOTION_DOT":"-0.01245358","APOAPSIS":"514.348","SEMIMAJOR_AXIS":"6891.208","OBJECT_ID":"2022-084A","ARG_OF_PERICENTER":"98.1833","OBJECT_TYPE":"PAYLOAD","PERIOD":"94.886"},{"OBJECT_ID":"2022-084B","ARG_OF_PERICENTER":"104.8307","PERIOD":"94.942","OBJECT_TYPE":"PAYLOAD","APOAPSIS":"517.059","SEMIMAJOR_AXIS":"6893.915","DECAY_DATE":null,"OBJECT_NAME":"STARLINK-4332","PERIAPSIS":"514.500","TIME_SYSTEM":"UTC","MEAN_MOTION_DOT":"-0.01250383","COUNTRY_CODE":"US","SITE":"AFWTR","CLASSIFICATION_TYPE":"U","MEAN_ANOMALY":"231.2325","REV_AT_EPOCH":"130","ELEMENT_SET_NO":"999","ECCENTRICITY":"0.00018560","MEAN_MOTION":"15.16714772","CENTER_NAME":"EARTH","NORAD_CAT_ID":"53190","MEAN_MOTION_DDOT":"0.0000000000000","REF_FRAME":"TEME","RCS_SIZE":"LARGE","EPHEMERIS_TYPE":"0","EPOCH":"2022-08-31T22:00:00.999936","TLE_LINE1":"1 53190U 22084B   22243.91667824 -.01250383  00000-0 -69763-1 0  9996","BSTAR":"-0.06976300000000","TLE_LINE2":"2 53190  97.6556 304.0440 0001856 104.8307 231.2325 15.16714772  1309","LAUNCH_DATE":"2022-07-22","INCLINATION":"97.6556","FILE":"3552761","RA_OF_ASC_NODE":"304.0440","GP_ID":"211427437","MEAN_ELEMENT_THEORY":"SGP4"},{"SITE":"AFWTR","CLASSIFICATION_TYPE":"U","ELEMENT_SET_NO":"999","ECCENTRICITY":"0.00020370","REV_AT_EPOCH":"130","MEAN_ANOMALY":"77.3634","TIME_SYSTEM":"UTC","DECAY_DATE":null,"OBJECT_NAME":"STARLINK-4369","PERIAPSIS":"523.130","MEAN_MOTION_DOT":"-0.01222751","COUNTRY_CODE":"US","APOAPSIS":"525.942","SEMIMAJOR_AXIS":"6902.671","OBJECT_ID":"2022-084C","ARG_OF_PERICENTER":"100.8009","PERIOD":"95.123","OBJECT_TYPE":"PAYLOAD","MEAN_ELEMENT_THEORY":"SGP4","GP_ID":"211427724","FILE":"3552761","RA_OF_ASC_NODE":"304.0385","BSTAR":"-0.07390000000000","INCLINATION":"97.6556","LAUNCH_DATE":"2022-07-22","TLE_LINE2":"2 53191  97.6556 304.0385 0002037 100.8009  77.3634 15.13829714  1307","CENTER_NAME":"EARTH","NORAD_CAT_ID":"53191","MEAN_MOTION":"15.13829714","RCS_SIZE":"LARGE","EPOCH":"2022-08-31T22:00:00.999936","EPHEMERIS_TYPE":"0","TLE_LINE1":"1 53191U 22084C   22243.91667824 -.01222751  00000-0 -73900-1 0  9993","REF_FRAME":"TEME","MEAN_MOTION_DDOT":"0.0000000000000"},{"TLE_LINE1":"1 53192U 22084D   22243.91667824 -.01257698  00000-0 -75204-1 0  9991","RCS_SIZE":"LARGE","EPOCH":"2022-08-31T22:00:00.999936","EPHEMERIS_TYPE":"0","REF_FRAME":"TEME","MEAN_MOTION_DDOT":"0.0000000000000","CENTER_NAME":"EARTH","NORAD_CAT_ID":"53192","MEAN_MOTION":"15.14296276","LAUNCH_DATE":"2022-07-22","INCLINATION":"97.6556","TLE_LINE2":"2 53192  97.6556 304.0431 0002268 122.9648  79.1756 15.14296276  1307","BSTAR":"-0.07520400000000","RA_OF_ASC_NODE":"304.0431","FILE":"3552761","MEAN_ELEMENT_THEORY":"SGP4","GP_ID":"211426877","OBJECT_TYPE":"PAYLOAD","PERIOD":"95.094","ARG_OF_PERICENTER":"122.9648","OBJECT_ID":"2022-084D","SEMIMAJOR_AXIS":"6901.253","APOAPSIS":"524.683","COUNTRY_CODE":"US","MEAN_MOTION_DOT":"-0.01257698","TIME_SYSTEM":"UTC","OBJECT_NAME":"STARLINK-4375","PERIAPSIS":"521.553","DECAY_DATE":null,"ELEMENT_SET_NO":"999","ECCENTRICITY":"0.00022680","REV_AT_EPOCH":"130","MEAN_ANOMALY":"79.1756","SITE":"AFWTR","CLASSIFICATION_TYPE":"U"},{"OBJECT_ID":"2022-084E","ARG_OF_PERICENTER":"103.7088","PERIOD":"94.806","OBJECT_TYPE":"PAYLOAD","APOAPSIS":"510.418","SEMIMAJOR_AXIS":"6887.325","TIME_SYSTEM":"UTC","DECAY_DATE":null,"PERIAPSIS":"507.961","OBJECT_NAME":"STARLINK-4351","MEAN_MOTION_DOT":"-0.01223740","COUNTRY_CODE":"US","CLASSIFICATION_TYPE":"U","SITE":"AFWTR","ELEMENT_SET_NO":"999","REV_AT_EPOCH":"130","ECCENTRICITY":"0.00017840","MEAN_ANOMALY":"316.1589","NORAD_CAT_ID":"53193","CENTER_NAME":"EARTH","MEAN_MOTION":"15.18892170","EPOCH":"2022-08-31T22:00:00.999936","RCS_SIZE":"LARGE","EPHEMERIS_TYPE":"0","TLE_LINE1":"1 53193U 22084E   22243.91667824 -.01223740  00000-0 -64002-1 0  9997","REF_FRAME":"TEME","MEAN_MOTION_DDOT":"0.0000000000000","BSTAR":"-0.06400200000000","INCLINATION":"97.6556","LAUNCH_DATE":"2022-07-22","TLE_LINE2":"2 53193  97.6556 304.0387 0001784 103.7088 316.1589 15.18892170  1302","FILE":"3552761","RA_OF_ASC_NODE":"304.0387","MEAN_ELEMENT_THEORY":"SGP4","GP_ID":"211427580"},{"MEAN_MOTION_DDOT":"0.0000000000000","REF_FRAME":"TEME","EPOCH":"2022-08-31T22:00:00.999936","RCS_SIZE":"LARGE","EPHEMERIS_TYPE":"0","TLE_LINE1":"1 53194U 22084F   22243.91667824 -.01247192  00000-0 -75793-1 0  9994","MEAN_MOTION":"15.13696512","NORAD_CAT_ID":"53194","CENTER_NAME":"EARTH","TLE_LINE2":"2 53194  97.6557 304.0371 0002149 101.5410  68.0887 15.13696512  1309","LAUNCH_DATE":"2022-07-22","INCLINATION":"97.6557","BSTAR":"-0.07579300000000","RA_OF_ASC_NODE":"304.0371","FILE":"3552761","GP_ID":"211427020","MEAN_ELEMENT_THEORY":"SGP4","PERIOD":"95.131","OBJECT_TYPE":"PAYLOAD","OBJECT_ID":"2022-084F","ARG_OF_PERICENTER":"101.5410","SEMIMAJOR_AXIS":"6903.076","APOAPSIS":"526.424","MEAN_MOTION_DOT":"-0.01247192","COUNTRY_CODE":"US","DECAY_DATE":null,"PERIAPSIS":"523.457","OBJECT_NAME":"STARLINK-4382","TIME_SYSTEM":"UTC","MEAN_ANOMALY":"68.0887","REV_AT_EPOCH":"130","ECCENTRICITY":"0.00021490","ELEMENT_SET_NO":"999","CLASSIFICATION_TYPE":"U","SITE":"AFWTR"},{"PERIOD":"94.549","OBJECT_TYPE":"PAYLOAD","ARG_OF_PERICENTER":"129.2202","OBJECT_ID":"2022-084G","SEMIMAJOR_AXIS":"6874.873","APOAPSIS":"498.258","COUNTRY_CODE":"US","MEAN_MOTION_DOT":"-0.01252313","PERIAPSIS":"495.217","OBJECT_NAME":"STARLINK-4404","DECAY_DATE":null,"TIME_SYSTEM":"UTC","MEAN_ANOMALY":"326.5500","ECCENTRICITY":"0.00022120","ELEMENT_SET_NO":"999","REV_AT_EPOCH":"130","SITE":"AFWTR","CLASSIFICATION_TYPE":"U","REF_FRAME":"TEME","MEAN_MOTION_DDOT":"0.0000000000000","TLE_LINE1":"1 53195U 22084G   22243.91667824 -.01252313  00000-0 -58137-1 0  9999","RCS_SIZE":"LARGE","EPHEMERIS_TYPE":"0","EPOCH":"2022-08-31T22:00:00.999936","MEAN_MOTION":"15.23020551","CENTER_NAME":"EARTH","NORAD_CAT_ID":"53195","TLE_LINE2":"2 53195  97.6558 304.1326 0002212 129.2202 326.5500 15.23020551  1308","INCLINATION":"97.6558","LAUNCH_DATE":"2022-07-22","BSTAR":"-0.05813700000000","RA_OF_ASC_NODE":"304.1326","FILE":"3552761","GP_ID":"211427876","MEAN_ELEMENT_THEORY":"SGP4"}];
